NORAD_CAT_ID,OBJECT_NAME,OBJECT_TYPE,EPOCH,MEAN_MOTION,ECCENTRICITY,INCLINATION,RA_OF_ASC_NODE,ARG_OF_PERICENTER,MEAN_ANOMALY,BSTAR,MEAN_MOTION_DOT,MEAN_MOTION_DDOT,TLE_LINE0,TLE_LINE1,TLE_LINE2,SEMIMAJOR_AXIS,PERIOD,APOGEE,PERIGEE,DECAYED
53635.0,STARLINK-4587,PAYLOAD,2023-11-09 08:33:07,15.0885188,0.0001574,53.2165,85.8528,93.0752,267.0421,0.00038778,5.891e-05,0.0,0 STARLINK-4587,1 53635U 22104AZ  23313.35634179  .00005891  00000-0  38778-3 0  9990,2 53635  53.2165  85.8528 0001574  93.0752 267.0421 15.08851880 66687,6917.844,95.437,540.798,538.62,0.0
53635.0,STARLINK-4587,PAYLOAD,2023-11-09 13:19:17,15.08845473,0.0001433,53.2174,84.9583,93.6491,266.4665,0.00019854,2.874e-05,0.0,0 STARLINK-4587,1 53635U 22104AZ  23313.55506347  .00002874  00000-0  19854-3 0  9999,2 53635  53.2174  84.9583 0001433  93.6491 266.4665 15.08845473 67739,6917.864,95.437,540.72,538.737,0.0
53635.0,STARLINK-4587,PAYLOAD,2023-11-09 16:30:03,15.08849775,0.000118,53.2169,84.3632,90.7579,269.3548,0.00025324,3.746e-05,0.0,0 STARLINK-4587,1 53635U 22104AZ  23313.68754030  .00003746  00000-0  25324-3 0  9995,2 53635  53.2169  84.3632 0001180  90.7579 269.3548 15.08849775 67759,6917.851,95.437,540.532,538.899,0.0
53635.0,STARLINK-4587,PAYLOAD,2023-11-10 02:02:22,15.08847226,0.0001318,53.217,82.5779,97.0939,263.0203,0.0001709,2.434e-05,0.0,0 STARLINK-4587,1 53635U 22104AZ  23314.08498024  .00002434  00000-0  17090-3 0  9992,2 53635  53.2170  82.5779 0001318  97.0939 263.0203 15.08847226 66797,6917.858,95.437,540.635,538.812,0.0
53635.0,STARLINK-4587,PAYLOAD,2023-11-10 14:45:27,15.0884195,8.37e-05,53.2161,80.1989,105.7525,254.3559,9.2671e-05,1.188e-05,0.0,0 STARLINK-4587,1 53635U 22104AZ  23314.61490120  .00001188  00000-0  92671-4 0  9994,2 53635  53.2161  80.1989 0000837 105.7525 254.3559 15.08841950 67894,6917.874,95.437,540.318,539.16,0.0
53635.0,STARLINK-4587,PAYLOAD,2023-11-10 16:20:50,15.08849122,0.0001423,53.2166,79.9007,93.9792,266.1363,0.00012711,1.736e-05,0.0,0 STARLINK-4587,1 53635U 22104AZ  23314.68113920  .00001736  00000-0  12711-3 0  9996,2 53635  53.2166  79.9007 0001423  93.9792 266.1363 15.08849122 67907,6917.853,95.437,540.702,538.733,0.0
53635.0,STARLINK-4587,PAYLOAD,2023-11-11 14:36:14,15.08840475,0.0001408,53.2168,75.7388,84.4422,275.673,0.00013342,1.836e-05,0.0,0 STARLINK-4587,1 53635U 22104AZ  23315.60850497  .00001836  00000-0  13342-3 0  9998,2 53635  53.2168  75.7388 0001408  84.4422 275.6730 15.08840475 68044,6917.879,95.438,540.718,538.77,0.0
53635.0,STARLINK-4587,PAYLOAD,2023-11-11 17:47:00,15.08845285,0.0001418,53.2167,75.1429,88.1174,271.998,0.00020256,2.938e-05,0.0,0 STARLINK-4587,1 53635U 22104AZ  23315.74098277  .00002938  00000-0  20256-3 0  9999,2 53635  53.2167  75.1429 0001418  88.1174 271.9980 15.08845285 67048,6917.864,95.437,540.71,538.748,0.0
53635.0,STARLINK-4587,PAYLOAD,2023-11-12 11:16:15,15.08843314,0.0001507,53.2164,71.8732,87.3608,272.7557,0.00018012,2.58e-05,0.0,0 STARLINK-4587,1 53635U 22104AZ  23316.46962447  .00002580  00000-0  18012-3 0  9998,2 53635  53.2164  71.8732 0001507  87.3608 272.7557 15.08843314 67159,6917.87,95.437,540.778,538.693,0.0
53635.0,STARLINK-4587,PAYLOAD,2023-11-12 12:51:38,15.08845703,0.0001516,53.2165,71.5758,87.7137,272.4029,0.00021341,3.111e-05,0.0,0 STARLINK-4587,1 53635U 22104AZ  23316.53586332  .00003111  00000-0  21341-3 0  9991,2 53635  53.2165  71.5758 0001516  87.7137 272.4029 15.08845703 68185,6917.863,95.437,540.777,538.679,0.0
53635.0,STARLINK-4587,PAYLOAD,2023-11-12 14:27:01,15.08848139,0.000154,53.2165,71.2785,87.1078,273.009,0.00017776,2.543e-05,0.0,0 STARLINK-4587,1 53635U 22104AZ  23316.60210212  .00002543  00000-0  17776-3 0  9995,2 53635  53.2165  71.2785 0001540  87.1078 273.0090 15.08848139 68199,6917.856,95.437,540.786,538.655,0.0
53635.0,STARLINK-4587,PAYLOAD,2023-11-13 14:17:48,15.0885078,0.0001464,53.2178,66.8189,85.7136,274.4023,0.0003656,5.537e-05,0.0,0 STARLINK-4587,1 53635U 22104AZ  23317.59569809  .00005537  00000-0  36560-3 0  9991,2 53635  53.2178  66.8189 0001464  85.7136 274.4023 15.08850780 68348,6917.847,95.437,540.725,538.7,0.0
53635.0,STARLINK-4587,PAYLOAD,2023-11-14 10:57:49,15.08834548,0.0001276,53.2181,62.9542,80.3053,279.8083,-4.8545e-05,-1.06e-05,0.0,0 STARLINK-4587,1 53635U 22104AZ  23318.45682650 -.00001060  00000-0 -48545-4 0  9993,2 53635  53.2181  62.9542 0001276  80.3053 279.8083 15.08834548 67452,6917.897,95.438,540.645,538.879,0.0
53635.0,STARLINK-4587,PAYLOAD,2023-11-14 14:08:36,15.08834987,0.0001388,53.2179,62.3581,83.9743,276.1408,-4.6004e-05,-1.02e-05,0.0,0 STARLINK-4587,1 53635U 22104AZ  23318.58930645 -.00001020  00000-0 -46004-4 0  9991,2 53635  53.2179  62.3581 0001388  83.9743 276.1408 15.08834987 68498,6917.896,95.438,540.721,538.801,0.0
53635.0,STARLINK-4587,PAYLOAD,2023-11-15 12:23:59,15.08840537,0.0001348,53.2169,58.1957,97.275,262.8395,4.0325e-05,3.54e-06,0.0,0 STARLINK-4587,1 53635U 22104AZ  23319.51666495  .00000354  00000-0  40325-4 0  9991,2 53635  53.2169  58.1957 0001348  97.2750 262.8395 15.08840537 68630,6917.879,95.438,540.676,538.811,0.0
53635.0,STARLINK-4587,PAYLOAD,2023-11-16 05:53:14,15.08832283,0.0001431,53.2169,54.9256,100.8515,259.2639,0.00014617,2.039e-05,0.0,0 STARLINK-4587,1 53635U 22104AZ  23320.24531104  .00002039  00000-0  14617-3 0  9997,2 53635  53.2169  54.9256 0001431 100.8515 259.2639 15.08832283 67728,6917.904,95.438,540.759,538.779,0.0
53635.0,STARLINK-4587,PAYLOAD,2023-11-16 15:25:33,15.08836654,0.0001325,53.2167,53.1417,92.9424,267.1719,0.00011567,1.553e-05,0.0,0 STARLINK-4587,1 53635U 22104AZ  23320.64275017  .00001553  00000-0  11567-3 0  9990,2 53635  53.2167  53.1417 0001325  92.9424 267.1719 15.08836654 68801,6917.891,95.438,540.672,538.839,0.0
53635.0,STARLINK-4587,PAYLOAD,2023-11-17 12:05:34,15.08844016,0.0001604,53.218,49.2762,92.6047,267.5128,-3.9802e-05,-9.22e-06,0.0,0 STARLINK-4587,1 53635U 22104AZ  23321.50386836 -.00000922  00000-0 -39802-4 0  9992,2 53635  53.2180  49.2762 0001604  92.6047 267.5128 15.08844016 67913,6917.868,95.437,540.843,538.623,0.0
53635.0,STARLINK-4587,PAYLOAD,2023-11-17 15:16:20,15.08845298,0.0001523,53.2192,48.681,84.1863,275.9303,5.8383e-05,6.41e-06,0.0,0 STARLINK-4587,1 53635U 22104AZ  23321.63634818  .00000641  00000-0  58383-4 0  9993,2 53635  53.2192  48.6810 0001523  84.1863 275.9303 15.08845298 68951,6917.864,95.437,540.783,538.676,0.0
53635.0,STARLINK-4587,PAYLOAD,2023-11-17 23:13:17,15.08824121,0.0001818,53.2198,47.1937,88.8104,271.3097,0.00036639,5.545e-05,0.0,0 STARLINK-4587,1 53635U 22104AZ  23321.96756058  .00005545  00000-0  36639-3 0  9997,2 53635  53.2198  47.1937 0001818  88.8104 271.3097 15.08824121 67981,6917.929,95.439,541.052,538.536,0.0
53635.0,STARLINK-4587,PAYLOAD,2023-11-18 11:56:21,15.08842318,0.0001637,53.2175,44.8127,90.4166,269.7013,0.00011895,1.606e-05,0.0,0 STARLINK-4587,1 53635U 22104AZ  23322.49747097  .00001606  00000-0  11895-3 0  9990,2 53635  53.2175  44.8127 0001637  90.4166 269.7013 15.08842318 68064,6917.873,95.437,540.871,538.606,0.0
53635.0,STARLINK-4587,PAYLOAD,2023-11-19 11:47:08,15.08832245,0.0001407,53.218,40.3529,92.5583,267.5571,0.00019227,2.773e-05,0.0,0 STARLINK-4587,1 53635U 22104AZ  23323.49107555  .00002773  00000-0  19227-3 0  9993,2 53635  53.2180  40.3529 0001407  92.5583 267.5571 15.08832245 68218,6917.904,95.438,540.742,538.796,0.0
53635.0,STARLINK-4587,PAYLOAD,2023-11-19 14:57:54,15.08845438,0.0001406,53.2185,39.7581,96.942,263.1732,3.5624e-05,2.79e-06,0.0,0 STARLINK-4587,1 53635U 22104AZ  23323.62354848  .00000279  00000-0  35624-4 0  9996,2 53635  53.2185  39.7581 0001406  96.9420 263.1732 15.08845438 68231,6917.864,95.437,540.701,538.756,0.0
53635.0,STARLINK-4587,PAYLOAD,2023-11-20 11:37:55,15.0884859,0.000138,53.219,35.8927,93.5409,266.5741,7.3908e-05,8.89e-06,0.0,0 STARLINK-4587,1 53635U 22104AZ  23324.48466536  .00000889  00000-0  73908-4 0  9993,2 53635  53.2190  35.8927 0001380  93.5409 266.5741 15.08848590 69385,6917.854,95.437,540.674,538.764,0.0
53635.0,STARLINK-4587,PAYLOAD,2023-11-20 16:24:04,15.0884441,0.0001541,53.2191,34.9997,92.5905,267.5263,0.00024612,3.632e-05,0.0,0 STARLINK-4587,1 53635U 22104AZ  23324.68338358  .00003632  00000-0  24612-3 0  9991,2 53635  53.2191  34.9997 0001541  92.5905 267.5263 15.08844410 68399,6917.867,95.437,540.798,538.666,0.0
53635.0,STARLINK-4587,PAYLOAD,2023-11-21 11:28:42,15.08845561,0.000132,53.2188,31.4334,89.6061,270.5082,0.00012733,1.739e-05,0.0,0 STARLINK-4587,1 53635U 22104AZ  23325.47826652  .00001739  00000-0  12733-3 0  9995,2 53635  53.2188  31.4334 0001320  89.6061 270.5082 15.08845561 68512,6917.863,95.437,540.642,538.815,0.0
53635.0,STARLINK-4587,PAYLOAD,2023-11-21 13:04:05,15.08849058,0.0001356,53.2182,31.1355,87.2648,272.8499,0.00016105,2.277e-05,0.0,0 STARLINK-4587,1 53635U 22104AZ  23325.54450557  .00002277  00000-0  16105-3 0  9995,2 53635  53.2182  31.1355 0001356  87.2648 272.8499 15.08849058 69546,6917.853,95.437,540.656,538.78,0.0
53635.0,STARLINK-4587,PAYLOAD,2023-11-22 11:19:28,15.08866347,0.000149,53.2185,26.9707,96.8063,263.3098,0.00040762,6.21e-05,0.0,0 STARLINK-4587,1 53635U 22104AZ  23326.47185312  .00006210  00000-0  40762-3 0  9999,2 53635  53.2185  26.9707 0001490  96.8063 263.3098 15.08866347 68660,6917.8,95.436,540.696,538.634,0.0
53635.0,STARLINK-4587,PAYLOAD,2023-11-23 09:34:52,15.0884205,0.0001618,53.218,22.81,106.6328,253.4842,1.9596e-06,-2.57e-06,0.0,0 STARLINK-4587,1 53635U 22104AZ  23327.39922033 -.00000257  00000-0  19596-5 0  9999,2 53635  53.2180  22.8100 0001618 106.6328 253.4842 15.08842050 68801,6917.874,95.437,540.858,538.62,0.0
53635.0,STARLINK-4587,PAYLOAD,2023-11-23 12:45:39,15.08837309,0.0001665,53.2185,22.2149,80.7496,279.3684,-3.4298e-05,-8.34e-06,0.0,0 STARLINK-4587,1 53635U 22104AZ  23327.53170346 -.00000834  00000-0 -34298-4 0  9994,2 53635  53.2185  22.2149 0001665  80.7496 279.3684 15.08837309 69840,6917.889,95.438,540.905,538.602,0.0
